SL-3 R/B                
1 19046U 88032B   26094.27434523  .00008489  00000+0  39106-3 0  9992
2 19046  97.5224  77.4456 0027007 141.5814 218.7351 15.20212368 55999
SL-16 R/B               
1 19120U 88039B   26094.20590348 -.00000059  00000+0 -48376-5 0  9991
2 19120  71.0174  14.5934 0023830 297.9060  61.9652 14.19620771962004
COSMOS 1953             
1 19210U 88050A   26094.15345697  .00012696  00000+0  44943-3 0  9995
2 19210  82.5061 132.6283 0011873  42.8589 317.3574 15.28944195 41674
SL-8 R/B                
1 19257U 88053B   26094.24923244  .00000335  00000+0  11713-3 0  9995
2 19257  74.0467  65.3478 0021363 241.1605 220.1097 14.38933793980278
COSMOS 1975             
1 19573U 88093A   26094.06430815  .00011657  00000+0  41870-3 0  9993
2 19573  82.5159  92.1991 0013375  83.8533 276.4229 15.28444338 23286
SL-14 R/B               
1 19574U 88093B   26094.26545392  .00000819  00000+0  91389-4 0  9992
2 19574  82.5345  18.0400 0019591 316.9311 156.1216 14.85689198  4811
SL-16 R/B               
1 19650U 88102B   26094.26282083  .00000268  00000+0  15942-3 0  9991
2 19650  70.9971  97.6869 0015387 324.2035  35.8056 14.16155280930512
INTERCOSMOS 24          
1 20261U 89080A   26094.22107460  .00000604  00000+0  17784-3 0  9998
2 20261  82.6016  87.7731 1187004 233.5104 115.0865 12.59590610670016
SL-14 R/B               
1 20262U 89080C   26094.24143242  .00000539  00000+0  15303-3 0  9991
2 20262  82.5946 156.7903 1230911 126.3748 245.7383 12.50518671663347
DELTA 1 R/B             
1 20323U 89089B   26094.14164578  .00000580  00000+0  15181-3 0  9992
2 20323  97.0684 297.5281 0070169  43.0970 317.5693 14.50686065899423
ARIANE 40 R/B           
1 20443U 90005H   26094.17763929  .00000451  00000+0  15680-3 0  9994
2 20443  98.3030 154.0729 0011242 125.1090 235.1155 14.39888769896473
DELTA 2 R/B(1)          
1 20453U 90008B   26094.20428515  .00105528  00000+0  10992-2 0  9992
2 20453  35.6043   6.9815 0076251 138.8915 221.7600 15.59608478930117
