CCSDS_OMM_VERS = 2.0
CREATION_DATE  = 
ORIGINATOR     = 

OBJECT_NAME    = SL-3 R/B
OBJECT_ID      = 1988-032B
CENTER_NAME    = EARTH
REF_FRAME      = TEME
TIME_SYSTEM    = UTC
MEAN_ELEMENT_THEORY = SGP/SGP4

EPOCH          = 2026-04-04T06:35:03.427872
MEAN_MOTION    = 15.20212368
ECCENTRICITY   = .00270079
INCLINATION    = 97.5224
RA_OF_ASC_NODE = 77.4456
ARG_OF_PERICENTER = 141.5814
MEAN_ANOMALY   = 218.7351

EPHEMERIS_TYPE = 0
CLASSIFICATION_TYPE = U
NORAD_CAT_ID   = 19046
ELEMENT_SET_NO = 999
REV_AT_EPOCH   = 5599
BSTAR          = .39105565E-3
MEAN_MOTION_DOT = .8489E-4
MEAN_MOTION_DDOT = 0

CCSDS_OMM_VERS = 2.0
CREATION_DATE  = 
ORIGINATOR     = 

OBJECT_NAME    = SL-16 R/B
OBJECT_ID      = 1988-039B
CENTER_NAME    = EARTH
REF_FRAME      = TEME
TIME_SYSTEM    = UTC
MEAN_ELEMENT_THEORY = SGP/SGP4

EPOCH          = 2026-04-04T04:56:30.060672
MEAN_MOTION    = 14.19620771
ECCENTRICITY   = .00238307
INCLINATION    = 71.0174
RA_OF_ASC_NODE = 14.5934
ARG_OF_PERICENTER = 297.9060
MEAN_ANOMALY   = 61.9652

EPHEMERIS_TYPE = 0
CLASSIFICATION_TYPE = U
NORAD_CAT_ID   = 19120
ELEMENT_SET_NO = 999
REV_AT_EPOCH   = 96200
BSTAR          = -.483759E-5
MEAN_MOTION_DOT = -.59E-6
MEAN_MOTION_DDOT = 0

CCSDS_OMM_VERS = 2.0
CREATION_DATE  = 
ORIGINATOR     = 

OBJECT_NAME    = COSMOS 1953
OBJECT_ID      = 1988-050A
CENTER_NAME    = EARTH
REF_FRAME      = TEME
TIME_SYSTEM    = UTC
MEAN_ELEMENT_THEORY = SGP/SGP4

EPOCH          = 2026-04-04T03:40:58.682208
MEAN_MOTION    = 15.28944195
ECCENTRICITY   = .00118737
INCLINATION    = 82.5061
RA_OF_ASC_NODE = 132.6283
ARG_OF_PERICENTER = 42.8589
MEAN_ANOMALY   = 317.3574

EPHEMERIS_TYPE = 0
CLASSIFICATION_TYPE = U
NORAD_CAT_ID   = 19210
ELEMENT_SET_NO = 999
REV_AT_EPOCH   = 4167
BSTAR          = .4494332E-3
MEAN_MOTION_DOT = .12696E-3
MEAN_MOTION_DDOT = 0

CCSDS_OMM_VERS = 2.0
CREATION_DATE  = 
ORIGINATOR     = 

OBJECT_NAME    = SL-8 R/B
OBJECT_ID      = 1988-053B
CENTER_NAME    = EARTH
REF_FRAME      = TEME
TIME_SYSTEM    = UTC
MEAN_ELEMENT_THEORY = SGP/SGP4

EPOCH          = 2026-04-04T05:58:53.682816
MEAN_MOTION    = 14.38933793
ECCENTRICITY   = .0021363
INCLINATION    = 74.0467
RA_OF_ASC_NODE = 65.3478
ARG_OF_PERICENTER = 241.1605
MEAN_ANOMALY   = 220.1097

EPHEMERIS_TYPE = 0
CLASSIFICATION_TYPE = U
NORAD_CAT_ID   = 19257
ELEMENT_SET_NO = 999
REV_AT_EPOCH   = 98027
BSTAR          = .11712634E-3
MEAN_MOTION_DOT = .335E-5
MEAN_MOTION_DDOT = 0

CCSDS_OMM_VERS = 2.0
CREATION_DATE  = 
ORIGINATOR     = 

OBJECT_NAME    = COSMOS 1975
OBJECT_ID      = 1988-093A
CENTER_NAME    = EARTH
REF_FRAME      = TEME
TIME_SYSTEM    = UTC
MEAN_ELEMENT_THEORY = SGP/SGP4

EPOCH          = 2026-04-04T01:32:36.224160
MEAN_MOTION    = 15.28444338
ECCENTRICITY   = .00133754
INCLINATION    = 82.5159
RA_OF_ASC_NODE = 92.1991
ARG_OF_PERICENTER = 83.8533
MEAN_ANOMALY   = 276.4229

EPHEMERIS_TYPE = 0
CLASSIFICATION_TYPE = U
NORAD_CAT_ID   = 19573
ELEMENT_SET_NO = 999
REV_AT_EPOCH   = 2328
BSTAR          = .41869605E-3
MEAN_MOTION_DOT = .11657E-3
MEAN_MOTION_DDOT = 0

CCSDS_OMM_VERS = 2.0
CREATION_DATE  = 
ORIGINATOR     = 

OBJECT_NAME    = SL-14 R/B
OBJECT_ID      = 1988-093B
CENTER_NAME    = EARTH
REF_FRAME      = TEME
TIME_SYSTEM    = UTC
MEAN_ELEMENT_THEORY = SGP/SGP4

EPOCH          = 2026-04-04T06:22:15.218688
MEAN_MOTION    = 14.85689198
ECCENTRICITY   = .00195919
INCLINATION    = 82.5345
RA_OF_ASC_NODE = 18.0400
ARG_OF_PERICENTER = 316.9311
MEAN_ANOMALY   = 156.1216

EPHEMERIS_TYPE = 0
CLASSIFICATION_TYPE = U
NORAD_CAT_ID   = 19574
ELEMENT_SET_NO = 999
REV_AT_EPOCH   = 481
BSTAR          = .91389089E-4
MEAN_MOTION_DOT = .819E-5
MEAN_MOTION_DDOT = 0

CCSDS_OMM_VERS = 2.0
CREATION_DATE  = 
ORIGINATOR     = 

OBJECT_NAME    = SL-16 R/B
OBJECT_ID      = 1988-102B
CENTER_NAME    = EARTH
REF_FRAME      = TEME
TIME_SYSTEM    = UTC
MEAN_ELEMENT_THEORY = SGP/SGP4

EPOCH          = 2026-04-04T06:18:27.719712
MEAN_MOTION    = 14.16155280
ECCENTRICITY   = .0015387
INCLINATION    = 70.9971
RA_OF_ASC_NODE = 97.6869
ARG_OF_PERICENTER = 324.2035
MEAN_ANOMALY   = 35.8056

EPHEMERIS_TYPE = 0
CLASSIFICATION_TYPE = U
NORAD_CAT_ID   = 19650
ELEMENT_SET_NO = 999
REV_AT_EPOCH   = 93051
BSTAR          = .15941806E-3
MEAN_MOTION_DOT = .268E-5
MEAN_MOTION_DDOT = 0

CCSDS_OMM_VERS = 2.0
CREATION_DATE  = 
ORIGINATOR     = 

OBJECT_NAME    = INTERCOSMOS 24
OBJECT_ID      = 1989-080A
CENTER_NAME    = EARTH
REF_FRAME      = TEME
TIME_SYSTEM    = UTC
MEAN_ELEMENT_THEORY = SGP/SGP4

EPOCH          = 2026-04-04T05:18:20.845440
MEAN_MOTION    = 12.59590610
ECCENTRICITY   = .11870041
INCLINATION    = 82.6016
RA_OF_ASC_NODE = 87.7731
ARG_OF_PERICENTER = 233.5104
MEAN_ANOMALY   = 115.0865

EPHEMERIS_TYPE = 0
CLASSIFICATION_TYPE = U
NORAD_CAT_ID   = 20261
ELEMENT_SET_NO = 999
REV_AT_EPOCH   = 67001
BSTAR          = .17783689E-3
MEAN_MOTION_DOT = .604E-5
MEAN_MOTION_DDOT = 0

CCSDS_OMM_VERS = 2.0
CREATION_DATE  = 
ORIGINATOR     = 

OBJECT_NAME    = SL-14 R/B
OBJECT_ID      = 1989-080C
CENTER_NAME    = EARTH
REF_FRAME      = TEME
TIME_SYSTEM    = UTC
MEAN_ELEMENT_THEORY = SGP/SGP4

EPOCH          = 2026-04-04T05:47:39.761088
MEAN_MOTION    = 12.50518671
ECCENTRICITY   = .12309115
INCLINATION    = 82.5946
RA_OF_ASC_NODE = 156.7903
ARG_OF_PERICENTER = 126.3748
MEAN_ANOMALY   = 245.7383

EPHEMERIS_TYPE = 0
CLASSIFICATION_TYPE = U
NORAD_CAT_ID   = 20262
ELEMENT_SET_NO = 999
REV_AT_EPOCH   = 66334
BSTAR          = .1530285E-3
MEAN_MOTION_DOT = .539E-5
MEAN_MOTION_DDOT = 0

CCSDS_OMM_VERS = 2.0
CREATION_DATE  = 
ORIGINATOR     = 

OBJECT_NAME    = DELTA 1 R/B
OBJECT_ID      = 1989-089B
CENTER_NAME    = EARTH
REF_FRAME      = TEME
TIME_SYSTEM    = UTC
MEAN_ELEMENT_THEORY = SGP/SGP4

EPOCH          = 2026-04-04T03:23:58.195392
MEAN_MOTION    = 14.50686065
ECCENTRICITY   = .00701695
INCLINATION    = 97.0684
RA_OF_ASC_NODE = 297.5281
ARG_OF_PERICENTER = 43.0970
MEAN_ANOMALY   = 317.5693

EPHEMERIS_TYPE = 0
CLASSIFICATION_TYPE = U
NORAD_CAT_ID   = 20323
ELEMENT_SET_NO = 999
REV_AT_EPOCH   = 89942
BSTAR          = .15180648E-3
MEAN_MOTION_DOT = .58E-5
MEAN_MOTION_DDOT = 0

CCSDS_OMM_VERS = 2.0
CREATION_DATE  = 
ORIGINATOR     = 

OBJECT_NAME    = ARIANE 40 R/B
OBJECT_ID      = 1990-005H
CENTER_NAME    = EARTH
REF_FRAME      = TEME
TIME_SYSTEM    = UTC
MEAN_ELEMENT_THEORY = SGP/SGP4

EPOCH          = 2026-04-04T04:15:48.034656
MEAN_MOTION    = 14.39888769
ECCENTRICITY   = .00112427
INCLINATION    = 98.3030
RA_OF_ASC_NODE = 154.0729
ARG_OF_PERICENTER = 125.1090
MEAN_ANOMALY   = 235.1155

EPHEMERIS_TYPE = 0
CLASSIFICATION_TYPE = U
NORAD_CAT_ID   = 20443
ELEMENT_SET_NO = 999
REV_AT_EPOCH   = 89647
BSTAR          = .15680161E-3
MEAN_MOTION_DOT = .451E-5
MEAN_MOTION_DDOT = 0

CCSDS_OMM_VERS = 2.0
CREATION_DATE  = 
ORIGINATOR     = 

OBJECT_NAME    = DELTA 2 R/B(1)
OBJECT_ID      = 1990-008B
CENTER_NAME    = EARTH
REF_FRAME      = TEME
TIME_SYSTEM    = UTC
MEAN_ELEMENT_THEORY = SGP/SGP4

EPOCH          = 2026-04-04T04:54:10.236960
MEAN_MOTION    = 15.59608478
ECCENTRICITY   = .0076251
INCLINATION    = 35.6043
RA_OF_ASC_NODE = 6.9815
ARG_OF_PERICENTER = 138.8915
MEAN_ANOMALY   = 221.7600

EPHEMERIS_TYPE = 0
CLASSIFICATION_TYPE = U
NORAD_CAT_ID   = 20453
ELEMENT_SET_NO = 999
REV_AT_EPOCH   = 93011
BSTAR          = .10992283E-2
MEAN_MOTION_DOT = .105528E-2
MEAN_MOTION_DDOT = 0

